{"type": "FeatureCollection", "features": [{"type": "Feature", "id": "Pres. Prudente", "properties": {"ra": "Pres. Prudente"}, "geometry": {"type": "Polygon", "coordinates": [[[-52.5021790716, -22.6340875484], [-52.5888467423, -22.5656279948], [-52.7011958262, -22.6271991596], [-52.8149401599, -22.5965760519], [-52.8542731933, -22.6078578295], [-52.9275049226, -22.5654906312], [-52.984357808, -22.5758832179], [-53.0872845028, -22.6579794897], [-53.1093561264, -22.603835788], [-53.0774831407, -22.5528715012], [-53.0138614638, -22.5201995723], [-52.9980786587, -22.4927151444], [-52.8542619959, -22.4386459988], [-52.7453359553, -22.3428466343], [-52.4893465518, -22.2178290376], [-52.3767234607, -22.1062116891], [-52.3449406834, -22.0615089372], [-52.3009913057, -21.9417025164], [-52.1900691887, -21.8456786115], [-52.1607700818, -21.7703087946], [-52.1032978667, -21.7455879133], [-52.0532763019, -21.6721082604], [-52.0490298982, -21.6426234784], [-52.0683851598, -21.5976421181], [-52.1016735424, -21.5693483356], [-52.0954719013, -21.5415985368], [-52.0659622791, -21.5041265478], [-51.9964434771, -21.5153960632], [-51.9674139566, -21.5012967923], [-51.9281929016, -21.4553517844], [-51.9050935247, -21.3835372001], [-51.8682739952, -21.3530652593], [-51.8480258138, -21.2661737164], [-51.8792327869, -21.1974526353], [-51.8753743916, -21.1356833737], [-51.8231029406, -21.1263757014], [-51.7891842389, -21.1016553747], [-51.77199002, -21.0506572878], [-51.6978968974, -21.0884336123], [-51.6982868831, -21.1327226869], [-51.6636441407, -21.1661377883], [-51.6004260664, -21.1438593021], [-51.5742458775, -21.1893556497], [-51.5212712624, -21.1996736679], [-51.4949097957, -21.2284433967], [-51.4341757095, -21.2453064852], [-51.3855591641, -21.2843154111], [-51.3133366542, -21.2960646554], [-51.265440352, -21.3309237726], [-51.2373433025, -21.3265186663], [-51.1926962943, -21.3744803082], [-51.1636339851, -21.3835551799], [-51.0921726281, -21.3712158666], [-51.0033347502, -21.4385388237], [-50.9235257682, -21.4417438461], [-50.8982323731, -21.4905527114], [-50.8731462457, -21.4886982157], [-50.8689952796, -21.5249918468], [-50.8149366489, -21.5396688109], [-50.8145453601, -21.5637613857], [-50.7966772208, -21.5414900412], [-50.793901493, -21.5586037963], [-50.7731134012, -21.5447998986], [-50.7760355138, -21.5865825357], [-50.8273731125, -21.6755943615], [-50.8556845576, -21.7737248963], [-50.8230658439, -21.8053361756], [-50.9654521337, -21.9254950368], [-50.9373839228, -21.9504993066], [-50.7052909404, -22.0214818434], [-50.7775101346, -22.0901326773], [-50.7674491872, -22.1021344539], [-50.8228703001, -22.2382074761], [-50.8384345875, -22.2391761951], [-50.8593902566, -22.2837084622], [-50.8492779096, -22.3525038334], [-50.8680223728, -22.3409287254], [-50.9052193928, -22.3487540129], [-50.9347853056, -22.4241803542], [-50.9218193731, -22.4440729211], [-50.8826040901, -22.420943125], [-50.8292939486, -22.4218166464], [-50.8450326882, -22.4721521327], [-50.8308630471, -22.4836194277], [-50.8573172751, -22.528716081], [-50.8413214322, -22.5492174342], [-50.8456566571, -22.6174934066], [-50.8273315761, -22.6465707143], [-50.8646663445, -22.660570142], [-50.903939566, -22.6377541845], [-50.9228724332, -22.6428280591], [-50.9523241768, -22.6948889989], [-50.937136188, -22.7107930244], [-50.93864481, -22.7497520625], [-50.9612616272, -22.7468032082], [-50.978191834, -22.7821362487], [-51.0038907084, -22.7932357671], [-51.0571281915, -22.765584795], [-51.1561809545, -22.7520556835], [-51.2340450899, -22.709272862], [-51.2647118113, -22.6672252386], [-51.4015271913, -22.6674337448], [-51.4459208215, -22.6524808464], [-51.498411892, -22.6900577915], [-51.5590777827, -22.6967079432], [-51.6273878292, -22.657770527], [-51.7176821266, -22.668550302], [-51.7338537154, -22.6249957882], [-51.7533104452, -22.6167972178], [-51.8731704448, -22.6277460842], [-51.9400197914, -22.5668730516], [-52.1087184997, -22.5158261851], [-52.1482675929, -22.5487845405], [-52.1561832381, -22.6442495913], [-52.2130779466, -22.6714891554], [-52.223882711, -22.6740438947], [-52.2499177667, -22.6149574521], [-52.3048787049, -22.6363481709], [-52.4451956833, -22.6078114484], [-52.5021790716, -22.6340875484]]]}}, {"type": "Feature", "id": "S. J. Rio Preto", "properties": {"ra": "S. J. Rio Preto"}, "geometry": {"type": "Polygon", "coordinates": [[[-50.8120434212, -20.5308579305], [-50.8767917408, -20.5378513537], [-50.8857080997, -20.5580538377], [-50.9012808862, -20.5386376227], [-50.9168352064, -20.5517699668], [-50.9267000984, -20.5416023679], [-50.9332591309, -20.5577011533], [-50.9479776372, -20.5474754331], [-50.9604556277, -20.5585778277], [-51.0049676162, -20.4022786353], [-51.1089105775, -20.2796297116], [-51.0577850437, -20.2327262389], [-50.9653583064, -20.033128897], [-50.7831260376, -19.9367676365], [-50.6576293584, -19.9066852347], [-50.5740660433, -19.8140430839], [-50.4714455998, -19.7791938324], [-50.4166605071, -19.8006742553], [-50.3369616106, -19.8690217581], [-50.1026711435, -19.8742688935], [-50.0381591899, -19.917826446], [-49.9616855984, -19.919760182], [-49.8907460498, -19.9431212014], [-49.7819884897, -19.9239986495], [-49.6339386823, -19.9314672446], [-49.5510183819, -19.9053760141], [-49.502987192, -19.9194642922], [-49.4871031689, -19.9548088362], [-49.4440542865, -19.9800462375], [-49.3560218743, -19.9862514024], [-49.264709238, -19.9615729327], [-49.2491832544, -19.9690881848], [-49.2478749864, -19.9991708466], [-49.2958467277, -20.0151076492], [-49.3080744092, -20.1034264306], [-49.2987817295, -20.1666092304], [-49.2592284326, -20.2582927311], [-49.2282026853, -20.3028896838], [-49.1830982893, -20.3141919688], [-49.1202550827, -20.2700603817], [-49.0931674318, -20.2890867763], [-49.075053158, -20.3555760748], [-49.0809503255, -20.4079879571], [-49.1100301078, -20.4238070126], [-49.1223943559, -20.4562157795], [-49.2189652804, -20.4712971505], [-49.2102612769, -20.5027946787], [-49.1887208003, -20.5116343651], [-49.1995779781, -20.5355517421], [-49.1202973769, -20.5976996583], [-49.1244906536, -20.6376100643], [-49.106106565, -20.6511757258], [-49.1292331051, -20.6579884417], [-49.1255270378, -20.7289999324], [-49.0946457576, -20.7590066809], [-49.1047886261, -20.7791916581], [-49.0921910303, -20.8112028196], [-49.0648806806, -20.8114707807], [-49.0156722127, -20.8539535669], [-48.9884622432, -20.8475319089], [-48.9415330059, -20.883164861], [-48.9081061069, -20.881766287], [-48.89998487, -20.9354202152], [-48.86052099, -20.9776024707], [-48.8494016454, -21.0143017948], [-48.804255914, -20.9866906737], [-48.7851805207, -20.9335490684], [-48.6971261506, -20.9939899873], [-48.6906561466, -21.0125605118], [-48.723623581, -21.0733914102], [-48.7764402225, -21.0987727832], [-48.6947979683, -21.2204910561], [-48.7409196129, -21.2451433367], [-48.7304724769, -21.3174673558], [-48.753832874, -21.4202197932], [-48.7744080372, -21.4269059064], [-48.8339886473, -21.3928803568], [-48.874388005, -21.3935666647], [-48.8997000756, -21.3701109689], [-48.9478644956, -21.398692767], [-48.9488227872, -21.4255153814], [-48.981018451, -21.416046694], [-48.9832838288, -21.4556617759], [-49.0188835331, -21.4818077735], [-49.0543581163, -21.4880504285], [-49.087156194, -21.466245082], [-49.117985888, -21.5149988361], [-49.1488406273, -21.5284623422], [-49.1830239563, -21.5937274331], [-49.2407338491, -21.6222644186], [-49.2139643185, -21.6711626571], [-49.2649565255, -21.6638791163], [-49.3110233828, -21.6167090451], [-49.3398198118, -21.5458105998], [-49.4195875453, -21.542166563], [-49.4840149101, -21.5029901341], [-49.5838835212, -21.3780383379], [-49.6387052147, -21.3518406652], [-49.696523694, -21.3622061935], [-49.7012005008, -21.3356323325], [-49.7293700454, -21.3416404554], [-49.7456232382, -21.2963194443], [-49.7703990227, -21.3059343092], [-49.9206493029, -21.2254700715], [-50.0006567068, -21.2258376653], [-50.0265543466, -21.2103218498], [-50.0918815151, -21.2195107836], [-50.1298723976, -21.194167125], [-50.1508418007, -21.1394171245], [-50.1029096735, -21.1010718668], [-50.1070044197, -21.0625314301], [-50.0324488378, -20.9779215845], [-50.0219013054, -20.9431141969], [-50.0616718985, -20.9387876849], [-50.0707107483, -20.9099581291], [-50.1126959911, -20.8755990333], [-50.1629248937, -20.8744478656], [-50.1220148296, -20.835502178], [-50.1135924676, -20.7629868552], [-50.1445627993, -20.7814564006], [-50.1682789706, -20.7714318657], [-50.1769914026, -20.7440584796], [-50.2155133751, -20.7545685628], [-50.2262253167, -20.7386244273], [-50.2352030716, -20.7532038892], [-50.2500294521, -20.7362702223], [-50.2649497611, -20.7517162772], [-50.2724173464, -20.7332038579], [-50.2938312531, -20.7340057167], [-50.2839780189, -20.6490793129], [-50.3015541249, -20.6289109846], [-50.2791780782, -20.5944387883], [-50.2708007856, -20.5205006375], [-50.2971570897, -20.4606267683], [-50.324853602, -20.4762281058], [-50.4272511923, -20.4742263227], [-50.544330182, -20.5036338983], [-50.5533534156, -20.5280266074], [-50.6471267918, -20.5069990089], [-50.6635539635, -20.5309029224], [-50.7242064285, -20.5269056028], [-50.759948327, -20.5516247943], [-50.807357087, -20.5463020551], [-50.8120434212, -20.5308579305]]]}}, {"type": "Feature", "id": "Campinas", "properties": {"ra": "Campinas"}, "geometry": {"type": "Polygon", "coordinates": [[[-47.3315098628, -23.1122527589], [-47.4180804407, -23.1681918267], [-47.4110772043, -23.1195658492], [-47.4277524547, -23.1006073355], [-47.4648408939, -23.109400886], [-47.4645668605, -23.1275751612], [-47.5081548725, -23.0911451298], [-47.6082267089, -23.098778666], [-47.5922635377, -23.0765573256], [-47.6259567392, -23.0754891145], [-47.6295841538, -23.0430119199], [-47.6608518364, -23.0278928089], [-47.6652938757, -22.9837108837], [-47.7110343516, -22.9115900928], [-47.722065811, -22.9327511061], [-47.7444312112, -22.9323666019], [-47.8064435136, -22.8764206415], [-47.8629860669, -22.8999998042], [-47.8645252498, -22.8603021885], [-47.968238237, -22.8995662249], [-47.9849407231, -22.8686839668], [-47.9913095659, -22.8941578815], [-48.0100164913, -22.894802526], [-48.0024732921, -22.8671275779], [-48.0470654762, -22.8314105054], [-48.0315803649, -22.8269653174], [-48.0275700781, -22.7536471359], [-48.0115550222, -22.7376560944], [-48.0318562845, -22.7191860072], [-48.0701157546, -22.7363512304], [-48.0839571304, -22.7232903885], [-48.0983936494, -22.6886826607], [-48.0947959557, -22.6232863412], [-48.1599138226, -22.6373270293], [-48.2100024414, -22.6176327652], [-48.2247558741, -22.5937485281], [-48.2459135898, -22.6185577978], [-48.2610157615, -22.6049513354], [-48.2472219498, -22.5769325853], [-48.2598817197, -22.5402901685], [-48.2343871494, -22.5198988981], [-48.2890042874, -22.5249280937], [-48.2762033619, -22.495131385], [-48.2425707845, -22.4789517087], [-48.2781894422, -22.4265957967], [-48.250016388, -22.3874472654], [-48.2371243388, -22.3922540787], [-48.2388850572, -22.3670627981], [-48.2868644446, -22.2805873731], [-48.298693115, -22.2859175308], [-48.2929516977, -22.2665369489], [-48.3295148047, -22.2672248684], [-48.3260066792, -22.2169362894], [-48.3081081851, -22.1916777003], [-48.2443229797, -22.1774190717], [-48.2554900804, -22.1541616535], [-48.1975226512, -22.1475704693], [-48.1315535001, -22.1834268608], [-48.1046252125, -22.179719275], [-48.042426667, -22.1257609241], [-48.0444124858, -22.0727455757], [-47.9926521689, -22.1155262475], [-47.9472003326, -22.1108799511], [-47.89664681, -22.1595939131], [-47.8303547796, -22.1477133952], [-47.8144281412, -22.1608624135], [-47.7893736918, -22.0973422869], [-47.7521770472, -22.0894584236], [-47.7457724792, -22.0583787623], [-47.715751975, -22.0346117163], [-47.6751919226, -22.012571341], [-47.6576187255, -22.0513177577], [-47.6002915269, -22.0511166357], [-47.574484668, -22.0172233968], [-47.5802456818, -21.9886627487], [-47.543113023, -21.979258792], [-47.4974360241, -21.9172795222], [-47.4051642275, -21.9143592485], [-47.3969262082, -21.8572113308], [-47.3426193218, -21.8393878545], [-47.333826606, -21.7757467874], [-47.2929340916, -21.7518447389], [-47.3297640472, -21.7264317361], [-47.3368847987, -21.6673598041], [-47.3217686637, -21.6494743779], [-47.3801480805, -21.649332786], [-47.3987713254, -21.6132621962], [-47.3448985403, -21.5616998779], [-47.2833905499, -21.5452444386], [-47.2782657845, -21.4679539295], [-47.2371158794, -21.4430399877], [-47.2308841492, -21.4216102716], [-47.2144707654, -21.4265161844], [-47.1914052489, -21.3475368596], [-47.1454760802, -21.2938955393], [-47.1244599568, -21.3263039636], [-47.0884056439, -21.2947231601], [-47.0942656245, -21.2857642399], [-47.0437743713, -21.2668772217], [-47.0347311204, -21.3105434985], [-46.9981348275, -21.348608934], [-47.0107864635, -21.4217943808], [-46.98391752, -21.4262161012], [-46.9203266259, -21.4266521862], [-46.8416353937, -21.3886291642], [-46.830390466, -21.3656533355], [-46.7913131348, -21.3732038], [-46.7642571409, -21.3595844143], [-46.7533758746, -21.3811667227], [-46.7055148367, -21.404364261], [-46.6662771259, -21.3608122006], [-46.6467522771, -21.3637144086], [-46.6470628901, -21.3931266386], [-46.6148108424, -21.4409873261], [-46.5760671414, -21.4264762393], [-46.5197545629, -21.4471613965], [-46.5084438, -21.4886465562], [-46.5237292798, -21.5213690509], [-46.4996023974, -21.5540511406], [-46.5215476186, -21.5840268652], [-46.5177813652, -21.6123407701], [-46.552531848, -21.6375940432], [-46.5654287949, -21.6788414379], [-46.620756974, -21.6750661896], [-46.6255822931, -21.7657449253], [-46.6535430503, -21.7787648797], [-46.6902657609, -21.8371523058], [-46.6470879079, -21.8799788117], [-46.672717521, -21.9076068991], [-46.6668535656, -21.9320780456], [-46.6120124475, -22.0043827404], [-46.6146868572, -22.0169023027], [-46.6494710833, -22.0090656066], [-46.6804607089, -22.0259858883], [-46.6643367172, -22.0683802395], [-46.722993221, -22.0763383436], [-46.7000202298, -22.0946906262], [-46.6495569776, -22.091014995], [-46.598081069, -22.1359061709], [-46.6400077732, -22.1572362503], [-46.6451364631, -22.1801630885], [-46.6738519135, -22.175821184], [-46.6775439962, -22.2230576659], [-46.710441495, -22.2634636578], [-46.7049351244, -22.2954649823], [-46.7228097243, -22.3061400239], [-46.6747992218, -22.3689273037], [-46.6604732729, -22.365556731], [-46.6663753457, -22.4132944095], [-46.6465812061, -22.4283540034], [-46.5543643714, -22.4461650372], [-46.5494152802, -22.469062995], [-46.5302179901, -22.4703674112], [-46.5416973086, -22.4938708072], [-46.5048395475, -22.5165617031], [-46.4529182263, -22.5219510028], [-46.4255311449, -22.5471448823], [-46.406503589, -22.5394467515], [-46.4333066468, -22.5733897346], [-46.4119954463, -22.584963024], [-46.423752252, -22.59906052], [-46.404308973, -22.6204071437], [-46.4241708382, -22.6331128925], [-46.3958632953, -22.6454957403], [-46.3926099424, -22.6624876621], [-46.4801868999, -22.677829636], [-46.4522734395, -22.7270953661], [-46.3340927065, -22.7598130615], [-46.3735029563, -22.81719473], [-46.3773862423, -22.8787526549], [-46.3441886392, -22.904047733], [-46.3135516653, -22.8865066996], [-46.2945799213, -22.8973313284], [-46.2664152324, -22.8751994765], [-46.237722795, -22.8936677336], [-46.1917499811, -22.8647426696], [-46.143658818, -22.8575201609], [-46.1364388037, -22.8900533385], [-46.1535417868, -22.9119121663], [-46.1386460698, -22.9222669406], [-46.0947711419, -22.8939406975], [-46.0513293016, -22.8958387576], [-46.0410630222, -22.9211457738], [-46.0506804372, -22.9658620057], [-46.1254516911, -23.0107179013], [-46.1611824183, -23.0661098561], [-46.204943357, -23.0848160102], [-46.2618766297, -23.1859843876], [-46.3084300469, -23.1992055063], [-46.3292372169, -23.2459260975], [-46.4164555972, -23.3136164909], [-46.4341724001, -23.2792809987], [-46.4600188187, -23.2705889651], [-46.4708268636, -23.2831293829], [-46.5155171192, -23.237656155], [-46.5945825951, -23.2370865957], [-46.6068780804, -23.224857906], [-46.6294290753, -23.2582160252], [-46.7252952902, -23.2480266926], [-46.7914255842, -23.2667081392], [-46.8023557751, -23.2580071335], [-46.8160439718, -23.2820715067], [-46.8676220751, -23.2777476419], [-46.9448792545, -23.3246750742], [-47.0871076639, -23.3527319015], [-47.1048787142, -23.3705846793], [-47.1011756902, -23.3856420062], [-47.0812789453, -23.380837133], [-47.0854053982, -23.40275248], [-47.1202347763, -23.4032318766], [-47.1191104889, -23.3750191912], [-47.1330448895, -23.3801449259], [-47.1425098734, -23.3478193647], [-47.17062819, -23.3373591196], [-47.1608292353, -23.307181988], [-47.1908982814, -23.2696068984], [-47.1905298262, -23.2457882503], [-47.1758977943, -23.2567406366], [-47.1286170732, -23.2433728266], [-47.1155785765, -23.2245717999], [-47.1295115558, -23.2027251639], [-47.2395499992, -23.1842201961], [-47.2598389859, -23.1463614898], [-47.2883446845, -23.1570248245], [-47.3051129459, -23.1330608329], [-47.3001181179, -23.1129455888], [-47.3204090397, -23.1233709791], [-47.3315098628, -23.1122527589]]]}}, {"type": "Feature", "id": "Sorocaba", "properties": {"ra": "Sorocaba"}, "geometry": {"type": "Polygon", "coordinates": [[[-47.8676122285, -24.0760051129], [-47.9377543691, -24.0989818823], [-47.9526608849, -24.1193434658], [-47.9763820361, -24.0787560565], [-48.0615058401, -24.013643666], [-48.083106549, -24.0030486882], [-48.1246705777, -24.0137916021], [-48.1206829817, -23.9642444573], [-48.1664212706, -23.9217587273], [-48.1724980633, -23.889646673], [-48.1911006056, -23.8858612987], [-48.1886086193, -23.8547002007], [-48.2694890999, -23.8558709985], [-48.2956541866, -23.8246407609], [-48.3399029619, -23.8543103657], [-48.3306372568, -23.8406469581], [-48.3540420953, -23.8236550012], [-48.3654432022, -23.8347302984], [-48.3740241559, -23.8129859312], [-48.3520435242, -23.8059085329], [-48.3826963306, -23.7906112957], [-48.379130218, -23.7771248927], [-48.3997752877, -23.7763838241], [-48.3988245931, -23.7621713486], [-48.3718833734, -23.7646289674], [-48.4079296726, -23.7487150632], [-48.4057362118, -23.7353451091], [-48.3888772971, -23.7406203179], [-48.4073441157, -23.7141500824], [-48.3635641941, -23.6589329086], [-48.3814401491, -23.5795297982], [-48.3398162287, -23.5731877061], [-48.3284012449, -23.5966302453], [-48.2995770244, -23.5877806049], [-48.2958926857, -23.5636861554], [-48.2732837871, -23.5753271564], [-48.2491338503, -23.5310759311], [-48.1942736836, -23.4988080701], [-48.1891765222, -23.4807876], [-48.266928728, -23.4661512406], [-48.3009600727, -23.4164505845], [-48.3289635873, -23.4319029908], [-48.3696804202, -23.4078254988], [-48.3555176549, -23.3752403684], [-48.3688826363, -23.3427744131], [-48.3866089349, -23.3432708558], [-48.3596794469, -23.3025217027], [-48.4181176216, -23.2620465877], [-48.4355998825, -23.2729097412], [-48.4910696515, -23.2606502595], [-48.5536288049, -23.2788809041], [-48.5888749507, -23.3137957812], [-48.6806636476, -23.3422220944], [-48.7918592118, -23.2915304459], [-48.8043703446, -23.2674994858], [-48.9286125148, -23.2985699816], [-48.9686174301, -23.2949486535], [-49.0121622043, -23.261703475], [-48.9882788438, -23.2231934869], [-49.0006287227, -23.1857342979], [-48.9806448103, -23.1598232833], [-48.9731493122, -23.1069314577], [-48.9924073336, -23.086517137], [-49.1214290961, -23.0962663797], [-49.150847006, -23.2595850943], [-49.2103231486, -23.2450315029], [-49.2095189312, -23.2269303857], [-49.2427225542, -23.2033892882], [-49.2593683964, -23.1212124835], [-49.3212015737, -23.1291825474], [-49.3581377088, -23.0839159706], [-49.3811549599, -23.0810493314], [-49.3868344412, -23.0427386338], [-49.3678219526, -22.9837082646], [-49.3589875343, -22.992110925], [-49.2794298316, -22.9383310336], [-49.3083751583, -22.8849203808], [-49.3690299609, -22.8828119525], [-49.3754171877, -22.776973568], [-49.3478731621, -22.7825715266], [-49.3084770045, -22.7621881745], [-49.2769996808, -22.7713548166], [-49.248463071, -22.7489516471], [-49.22750482, -22.759930886], [-49.1974958141, -22.721879284], [-49.1742160407, -22.72983292], [-49.1526985412, -22.6847710782], [-49.0948617703, -22.6664121554], [-49.0917087163, -22.7051414106], [-49.0261190718, -22.7714367477], [-49.03247027, -22.8304308659], [-49.0132981654, -22.840145458], [-48.9958939801, -22.8187093741], [-48.982957577, -22.8400309958], [-48.9477820935, -22.8250260444], [-48.8791838149, -22.8515361982], [-48.8020986503, -22.8448534012], [-48.7737789864, -22.8109912745], [-48.7776585432, -22.7614860671], [-48.7435551888, -22.7704696955], [-48.7071047531, -22.7333004352], [-48.6909447009, -22.7374647935], [-48.6884478838, -22.646644657], [-48.6606607473, -22.6315366452], [-48.6818441738, -22.5908524878], [-48.6700931199, -22.5467096666], [-48.6523602371, -22.5321476952], [-48.6238137787, -22.5482454452], [-48.6145708297, -22.5750820996], [-48.5603220971, -22.586703202], [-48.5281375912, -22.5751807108], [-48.5125612829, -22.5480175557], [-48.4433814169, -22.5394788394], [-48.3384184839, -22.6235512504], [-48.2810109432, -22.595990624], [-48.2459135898, -22.6185577978], [-48.2247558741, -22.5937485281], [-48.2100024414, -22.6176327652], [-48.1599138226, -22.6373270293], [-48.0947959557, -22.6232863412], [-48.0983936494, -22.6886826607], [-48.0839571304, -22.7232903885], [-48.0701157546, -22.7363512304], [-48.0318562845, -22.7191860072], [-48.0115550222, -22.7376560944], [-48.0275700781, -22.7536471359], [-48.0315803649, -22.8269653174], [-48.0470654762, -22.8314105054], [-48.0024732921, -22.8671275779], [-48.0100164913, -22.894802526], [-47.9913095659, -22.8941578815], [-47.9849407231, -22.8686839668], [-47.968238237, -22.8995662249], [-47.8645252498, -22.8603021885], [-47.8629860669, -22.8999998042], [-47.8064435136, -22.8764206415], [-47.7444312112, -22.9323666019], [-47.722065811, -22.9327511061], [-47.7110343516, -22.9115900928], [-47.6652938757, -22.9837108837], [-47.6608518364, -23.0278928089], [-47.6295841538, -23.0430119199], [-47.6259567392, -23.0754891145], [-47.5922635377, -23.0765573256], [-47.6082267089, -23.098778666], [-47.5081548725, -23.0911451298], [-47.4645668605, -23.1275751612], [-47.4648408939, -23.109400886], [-47.4277524547, -23.1006073355], [-47.4110772043, -23.1195658492], [-47.4180804407, -23.1681918267], [-47.3752729816, -23.1514475917], [-47.3390336116, -23.1106330411], [-47.3204090397, -23.1233709791], [-47.3001181179, -23.1129455888], [-47.3051129459, -23.1330608329], [-47.2883446845, -23.1570248245], [-47.2598389859, -23.1463614898], [-47.2395499992, -23.1842201961], [-47.1295115558, -23.2027251639], [-47.1155785765, -23.2245717999], [-47.1286170732, -23.2433728266], [-47.1758977943, -23.2567406366], [-47.1905298262, -23.2457882503], [-47.1908982814, -23.2696068984], [-47.1608292353, -23.307181988], [-47.17062819, -23.3373591196], [-47.1425098734, -23.3478193647], [-47.1330448895, -23.3801449259], [-47.1191104889, -23.3750191912], [-47.1202347763, -23.4032318766], [-47.0854053982, -23.40275248], [-47.0812789453, -23.380837133], [-47.1011756902, -23.3856420062], [-47.1048787142, -23.3705846793], [-47.0871076639, -23.3527319015], [-47.0424580614, -23.3517735664], [-47.0285577438, -23.375008019], [-47.0421686296, -23.3862590625], [-47.0372199452, -23.4355561028], [-47.010175656, -23.4458511508], [-47.0178309668, -23.4835710843], [-46.9905398217, -23.53031919], [-47.0121499142, -23.5360719204], [-47.0057881223, -23.5539007504], [-47.0293467581, -23.567703128], [-47.0417642567, -23.6113113151], [-47.0845843138, -23.6666688869], [-47.0617026349, -23.6819811002], [-47.0206404338, -23.7851252061], [-46.9861014663, -23.8081168226], [-47.0146522652, -23.8138260708], [-47.0283295945, -23.8456987831], [-47.0378477389, -23.8347882596], [-47.1159068903, -23.8399174174], [-47.1585056677, -23.9334552841], [-47.1999867803, -23.9386614309], [-47.1932700023, -23.9529307877], [-47.2080617203, -23.9643711073], [-47.1882539748, -23.9905885401], [-47.2447906602, -24.0219349705], [-47.2612929993, -24.0048784736], [-47.2716324832, -24.0170941986], [-47.2855645775, -24.0059021368], [-47.3393107036, -24.0126229734], [-47.3888170782, -24.05455824], [-47.4269924756, -24.0681756331], [-47.4486434156, -24.0499970688], [-47.4768652349, -24.0808337557], [-47.5030662857, -24.0490538887], [-47.5532066297, -24.036420448], [-47.5699924497, -24.0775326098], [-47.5955461028, -24.0792956891], [-47.6279895991, -24.1134985692], [-47.6355413555, -24.0999805698], [-47.6132894354, -24.0441950529], [-47.6723726306, -24.0406648297], [-47.7246663745, -24.0804392978], [-47.7352734801, -24.1035215634], [-47.7242488405, -24.1176163583], [-47.7724883295, -24.1338815281], [-47.858029262, -24.1221142063], [-47.8676122285, -24.0760051129]]]}}, {"type": "Feature", "id": "Bauru", "properties": {"ra": "Bauru"}, "geometry": {"type": "Polygon", "coordinates": [[[-49.3505349994, -22.6420797251], [-49.4438774008, -22.6000207226], [-49.4543352619, -22.566671619], [-49.5065579928, -22.512867924], [-49.584383603, -22.6039299729], [-49.5984425313, -22.6643750858], [-49.660306179, -22.607410495], [-49.6874621779, -22.6005777564], [-49.7047005236, -22.6246825617], [-49.7360243728, -22.5878998088], [-49.7715256646, -22.5001712556], [-49.7033405821, -22.4388727166], [-49.6739960313, -22.4682445189], [-49.6459047942, -22.4361642237], [-49.6280371803, -22.4686771448], [-49.5956877621, -22.4589057098], [-49.6034557502, -22.4426007887], [-49.575633543, -22.4166055084], [-49.5694969677, -22.3831421526], [-49.5152274454, -22.3949593037], [-49.4407289488, -22.3276416544], [-49.4223276567, -22.2937261577], [-49.4404323862, -22.3026202985], [-49.4362268911, -22.2701317285], [-49.4585086112, -22.2405971837], [-49.4952782602, -22.2292035858], [-49.5289547786, -22.1812406137], [-49.52389125, -22.1532464116], [-49.5616690808, -22.144801904], [-49.555947794, -22.1293283354], [-49.567770912, -22.139365046], [-49.5845209029, -22.1122708562], [-49.6222444326, -22.1121988954], [-49.6394310746, -22.0690675187], [-49.6609667383, -22.0759293327], [-49.736625897, -22.0292616513], [-49.7339660526, -22.0170847407], [-49.7559810126, -22.0077407214], [-49.7338972442, -21.9393544073], [-49.7672828579, -21.9316351834], [-49.7681897664, -21.9159521504], [-49.8084213954, -21.8897141575], [-49.8280490557, -21.9183279225], [-49.815074791, -21.9347029439], [-49.8817670149, -21.9702361745], [-49.9806408041, -21.9403597984], [-50.014864524, -21.9226879495], [-50.0323923605, -21.8870622622], [-50.1153034015, -21.8352667051], [-50.1545533312, -21.7849357318], [-50.2212830476, -21.7624736788], [-50.2711371933, -21.7215844348], [-50.262837532, -21.7027636725], [-50.2212124675, -21.7014475833], [-50.2074500495, -21.6869486546], [-50.1143780196, -21.69211339], [-50.0994456175, -21.6218435944], [-50.0603783852, -21.5834703444], [-50.0477224267, -21.6094569583], [-50.0277314686, -21.5887636712], [-49.9927780228, -21.5904483265], [-49.9326829144, -21.5532451689], [-49.9148087508, -21.556971936], [-49.8906249102, -21.46805389], [-49.87128448, -21.4676127862], [-49.8592320683, -21.4205472439], [-49.8684159051, -21.3926120495], [-49.8160534102, -21.3158924433], [-49.8317480991, -21.2750124472], [-49.7703990227, -21.3059343092], [-49.7456232382, -21.2963194443], [-49.7293700454, -21.3416404554], [-49.7012005008, -21.3356323325], [-49.696523694, -21.3622061935], [-49.6387052147, -21.3518406652], [-49.5838835212, -21.3780383379], [-49.4840149101, -21.5029901341], [-49.4195875453, -21.542166563], [-49.3398198118, -21.5458105998], [-49.3110233828, -21.6167090451], [-49.2649565255, -21.6638791163], [-49.2139643185, -21.6711626571], [-49.1898426598, -21.6475319187], [-49.1600353753, -21.649479945], [-49.1040350964, -21.7505247724], [-49.0423997367, -21.7738326754], [-48.9620428937, -21.764738047], [-48.9893704237, -21.8269552705], [-48.9056553015, -21.8677107448], [-48.8771487242, -21.9205700368], [-48.8301478501, -21.8899442248], [-48.7542460249, -21.883328763], [-48.6868077303, -21.9132165063], [-48.6444814053, -21.9702378231], [-48.5635364261, -22.0046111927], [-48.545409894, -22.032641154], [-48.4810182308, -22.0136941647], [-48.4763935944, -22.041349125], [-48.4012976564, -22.1025837141], [-48.3869750773, -22.1591411358], [-48.3156202246, -22.1934994386], [-48.3295148047, -22.2672248684], [-48.2929516977, -22.2665369489], [-48.298693115, -22.2859175308], [-48.2868644446, -22.2805873731], [-48.2388850572, -22.3670627981], [-48.2371243388, -22.3922540787], [-48.250016388, -22.3874472654], [-48.2781894422, -22.4265957967], [-48.2425707845, -22.4789517087], [-48.2762033619, -22.495131385], [-48.2890042874, -22.5249280937], [-48.2449388964, -22.5139097091], [-48.2343871494, -22.5198988981], [-48.2598817197, -22.5402901685], [-48.2472219498, -22.5769325853], [-48.2610157615, -22.6049513354], [-48.2810109432, -22.595990624], [-48.3384184839, -22.6235512504], [-48.4514470047, -22.5389416458], [-48.5125612829, -22.5480175557], [-48.5281375912, -22.5751807108], [-48.5603220971, -22.586703202], [-48.5916175312, -22.5849495317], [-48.6523602371, -22.5321476952], [-48.6732373535, -22.5512544859], [-48.6647538201, -22.5641053908], [-48.6818441738, -22.5908524878], [-48.6606607473, -22.6315366452], [-48.6884478838, -22.646644657], [-48.6909447009, -22.7374647935], [-48.7071047531, -22.7333004352], [-48.7435551888, -22.7704696955], [-48.7776585432, -22.7614860671], [-48.7737789864, -22.8109912745], [-48.8020986503, -22.8448534012], [-48.8791838149, -22.8515361982], [-48.9477820935, -22.8250260444], [-48.982957577, -22.8400309958], [-48.9958939801, -22.8187093741], [-49.0132981654, -22.840145458], [-49.03247027, -22.8304308659], [-49.0261190718, -22.7714367477], [-49.0917087163, -22.7051414106], [-49.0948617703, -22.6664121554], [-49.1526985412, -22.6847710782], [-49.1742160407, -22.72983292], [-49.1974958141, -22.721879284], [-49.22750482, -22.759930886], [-49.248463071, -22.7489516471], [-49.2769996808, -22.7713548166], [-49.3287746067, -22.7652871482], [-49.3602408423, -22.7841622942], [-49.385222951, -22.7624361495], [-49.3835185796, -22.7076203138], [-49.3351925906, -22.6758768204], [-49.360117578, -22.6574219441], [-49.3505349994, -22.6420797251]]]}}, {"type": "Feature", "id": "Barretos", "properties": {"ra": "Barretos"}, "geometry": {"type": "Polygon", "coordinates": [[[-48.5805138281, -21.2035275165], [-48.5998085535, -21.211115369], [-48.6272354879, -21.1962050912], [-48.6978116373, -21.2113707107], [-48.777228361, -21.1069428956], [-48.7700473076, -21.0905107017], [-48.723623581, -21.0733914102], [-48.6984647205, -21.0299226654], [-48.6906561466, -21.0125605118], [-48.7078594556, -20.9809744982], [-48.7951273429, -20.9350789479], [-48.804255914, -20.9866906737], [-48.8494016454, -21.0143017948], [-48.86052099, -20.9776024707], [-48.89998487, -20.9354202152], [-48.9081061069, -20.881766287], [-48.9415330059, -20.883164861], [-48.9884622432, -20.8475319089], [-49.0156722127, -20.8539535669], [-49.0648806806, -20.8114707807], [-49.0921910303, -20.8112028196], [-49.1047886261, -20.7791916581], [-49.0946457576, -20.7590066809], [-49.1255270378, -20.7289999324], [-49.1292331051, -20.6579884417], [-49.106106565, -20.6511757258], [-49.1244906536, -20.6376100643], [-49.1202973769, -20.5976996583], [-49.1995779781, -20.5355517421], [-49.1887208003, -20.5116343651], [-49.2102612769, -20.5027946787], [-49.2189652804, -20.4712971505], [-49.1806259758, -20.4752248922], [-49.1417487145, -20.4544831594], [-49.1416226886, -20.4675132335], [-49.0809503255, -20.4079879571], [-49.075053158, -20.3555760748], [-49.0931674318, -20.2890867763], [-49.1202550827, -20.2700603817], [-49.06701691, -20.1542761113], [-49.0324857312, -20.1495884695], [-48.9836333921, -20.1732539804], [-48.9613234972, -20.2628329891], [-48.9684350649, -20.3932714678], [-48.899400161, -20.440867047], [-48.8666002358, -20.3983987013], [-48.8846499095, -20.2659876992], [-48.8562962741, -20.2264157019], [-48.8549312184, -20.1796758755], [-48.8252822523, -20.1614894193], [-48.7290730669, -20.1498265981], [-48.6464661279, -20.1665321688], [-48.581760065, -20.1317406663], [-48.4906578555, -20.1376552855], [-48.4511579742, -20.1254048611], [-48.4241401886, -20.1531861432], [-48.3894859809, -20.1335511031], [-48.3949828029, -20.1608193205], [-48.3624978, -20.1475765349], [-48.3759865496, -20.1648002294], [-48.3476360444, -20.1851888293], [-48.3095915041, -20.1539287806], [-48.3146728687, -20.195066859], [-48.2717586553, -20.2174107566], [-48.2607618161, -20.1941904916], [-48.2289411178, -20.1980640783], [-48.2410751449, -20.2285578313], [-48.2041759577, -20.2174449047], [-48.1554395498, -20.2352367863], [-48.1493326701, -20.2890838667], [-48.1894457073, -20.3414497043], [-48.17862563, -20.3872361684], [-48.2013282694, -20.4422641237], [-48.2129322385, -20.457440037], [-48.2276195699, -20.449469934], [-48.278492323, -20.468600547], [-48.2927629204, -20.5138070505], [-48.3258794506, -20.531973341], [-48.343702244, -20.5214473835], [-48.3717396586, -20.5296813383], [-48.3710842315, -20.5457603164], [-48.3831963789, -20.5366903913], [-48.3198890912, -20.588576579], [-48.3502944528, -20.6442217858], [-48.3331342839, -20.6648958069], [-48.3378337941, -20.6950715649], [-48.3200479863, -20.7247500503], [-48.2953517884, -20.7198078196], [-48.2729650952, -20.7432100273], [-48.2568915026, -20.7400315508], [-48.2437190504, -20.7736379184], [-48.2547875705, -20.805780444], [-48.2325991634, -20.816949417], [-48.2419546788, -20.8488905938], [-48.2072196583, -20.874913797], [-48.2833083501, -20.951901407], [-48.366759766, -20.9486106159], [-48.3765197183, -21.0074817687], [-48.4008067442, -21.0051007033], [-48.45565053, -21.0523488819], [-48.4576877645, -21.0778694172], [-48.4446872294, -21.07416268], [-48.430190921, -21.0949848077], [-48.3767623319, -21.0961986137], [-48.353133002, -21.081196818], [-48.3442840302, -21.1048447849], [-48.3742137465, -21.1098423377], [-48.3469245845, -21.1278877485], [-48.3855177192, -21.1680943726], [-48.4199684463, -21.171752791], [-48.4268951258, -21.1954095017], [-48.4537623371, -21.2112255577], [-48.4528869449, -21.1832334538], [-48.5302681942, -21.1879915545], [-48.5388155782, -21.1684116584], [-48.5710253387, -21.1616871175], [-48.5805138281, -21.2035275165]]]}}, {"type": "Feature", "id": "Ribeir\u00e3o Preto", "properties": {"ra": "Ribeir\u00e3o Preto"}, "geometry": {"type": "Polygon", "coordinates": [[[-47.9326585413, -21.5799687692], [-47.9420445286, -21.5973022017], [-47.9902113165, -21.5955534836], [-48.0115683219, -21.5326979221], [-48.0276545428, -21.5380244034], [-48.0278515771, -21.5130662185], [-48.0413645762, -21.5155503134], [-48.0565758669, -21.4752041602], [-48.0738120139, -21.4787623047], [-48.102852414, -21.4526104704], [-48.1130435974, -21.4201098704], [-48.119106106, -21.435312897], [-48.1773887923, -21.4370966899], [-48.1962441325, -21.463964662], [-48.2820954875, -21.4808215189], [-48.2857748444, -21.4360729968], [-48.3363806298, -21.4261876856], [-48.3353788102, -21.3847698041], [-48.3113559312, -21.3602716123], [-48.3512450156, -21.3206816187], [-48.4263620053, -21.3181781138], [-48.4376529082, -21.3423408955], [-48.4780203397, -21.3312950491], [-48.5421721686, -21.3520749339], [-48.6034697118, -21.3145752282], [-48.6390694226, -21.2418730186], [-48.6947979683, -21.2204910561], [-48.7057028798, -21.2064270999], [-48.6520174492, -21.210686072], [-48.6272354879, -21.1962050912], [-48.5853591417, -21.2127805788], [-48.5710253387, -21.1616871175], [-48.5388155782, -21.1684116584], [-48.5302681942, -21.1879915545], [-48.4528869449, -21.1832334538], [-48.4585988561, -21.2018423141], [-48.4426636592, -21.2085552586], [-48.4199684463, -21.171752791], [-48.3855177192, -21.1680943726], [-48.3469245845, -21.1278877485], [-48.3742137465, -21.1098423377], [-48.3442840302, -21.1048447849], [-48.353133002, -21.081196818], [-48.3767623319, -21.0961986137], [-48.430190921, -21.0949848077], [-48.4446872294, -21.07416268], [-48.4576877645, -21.0778694172], [-48.45565053, -21.0523488819], [-48.4008067442, -21.0051007033], [-48.3765197183, -21.0074817687], [-48.366759766, -20.9486106159], [-48.2833083501, -20.951901407], [-48.2072196583, -20.874913797], [-48.1032095568, -20.8996166943], [-48.0555690335, -20.9307792647], [-47.9849132235, -20.8758962828], [-47.9392621115, -20.8994727995], [-47.9229131572, -20.8822916715], [-47.8897225785, -20.9091524241], [-47.8686268295, -20.8941931057], [-47.83662828, -20.9100796997], [-47.8084305659, -20.8900218719], [-47.7792906695, -20.8939634533], [-47.7461154065, -20.942982244], [-47.6738245562, -20.9359551388], [-47.6425687972, -20.9630541626], [-47.611676329, -20.9614654966], [-47.604138322, -20.9876448653], [-47.5714610087, -21.0115398084], [-47.57147038, -21.037954564], [-47.483206782, -21.0158493947], [-47.4877988054, -20.9969864998], [-47.4390910782, -20.9597867135], [-47.436338922, -20.9177493186], [-47.4066825556, -20.8750559091], [-47.4116646452, -20.8086682573], [-47.3440879582, -20.8275197397], [-47.3378645654, -20.8576329852], [-47.2891018888, -20.8354406515], [-47.250917785, -20.8632349742], [-47.2269093543, -20.8559960591], [-47.2395938728, -20.8848060148], [-47.2241227905, -20.9111367489], [-47.1895898042, -20.9277420683], [-47.192115818, -20.9415769196], [-47.1432890483, -20.9819092695], [-47.1565797449, -21.0183481944], [-47.1418352211, -21.0877531371], [-47.112701435, -21.1044443854], [-47.1330551982, -21.1329784389], [-47.1181492792, -21.1485662633], [-47.1180789929, -21.1854474544], [-47.0980395944, -21.2136099932], [-47.0613101465, -21.2103841892], [-47.0768380286, -21.239745658], [-47.0518318078, -21.2460408013], [-47.0437743713, -21.2668772217], [-47.0942656245, -21.2857642399], [-47.0884056439, -21.2947231601], [-47.1244599568, -21.3263039636], [-47.1454760802, -21.2938955393], [-47.1728009792, -21.3154411199], [-47.2144707654, -21.4265161844], [-47.2308841492, -21.4216102716], [-47.2371158794, -21.4430399877], [-47.2782657845, -21.4679539295], [-47.2759166156, -21.5251910804], [-47.2904678637, -21.5531211007], [-47.3448985403, -21.5616998779], [-47.3987713254, -21.6132621962], [-47.4242823321, -21.6012637081], [-47.4410280494, -21.6126530361], [-47.4502656005, -21.5764553644], [-47.5990327675, -21.5462946729], [-47.6056078405, -21.5793835764], [-47.6775806134, -21.6111912554], [-47.6785020622, -21.6565975906], [-47.7328155476, -21.7135673046], [-47.7693427543, -21.6908782847], [-47.8151319933, -21.6969044495], [-47.8113692264, -21.6796413472], [-47.8301194616, -21.6689844282], [-47.801249898, -21.6344175726], [-47.8341259228, -21.6130081065], [-47.8296176634, -21.6009797955], [-47.8538000374, -21.597309198], [-47.8689313514, -21.6153492005], [-47.8883447796, -21.5829515508], [-47.9326585413, -21.5799687692]]]}}, {"type": "Feature", "id": "Ara\u00e7atuba", "properties": {"ra": "Ara\u00e7atuba"}, "geometry": {"type": "Polygon", "coordinates": [[[-50.8693351432, -21.4946307952], [-50.9039421421, -21.4847753731], [-50.9235257682, -21.4417438461], [-51.0033347502, -21.4385388237], [-51.0921726281, -21.3712158666], [-51.1743728291, -21.3806095697], [-51.2373433025, -21.3265186663], [-51.265440352, -21.3309237726], [-51.3133366542, -21.2960646554], [-51.3855591641, -21.2843154111], [-51.4341757095, -21.2453064852], [-51.4949097957, -21.2284433967], [-51.5212712624, -21.1996736679], [-51.5742458775, -21.1893556497], [-51.6004260664, -21.1438593021], [-51.6636441407, -21.1661377883], [-51.6982868831, -21.1327226869], [-51.6978968974, -21.0884336123], [-51.77199002, -21.0506572878], [-51.7224855683, -20.9769739384], [-51.6652480448, -20.970056461], [-51.6231022942, -20.9439698441], [-51.6129929797, -20.8896146582], [-51.6303597837, -20.8492546717], [-51.621913947, -20.7764087718], [-51.6344148008, -20.7543852487], [-51.5936643822, -20.6433849356], [-51.4997394518, -20.5677536276], [-51.3503875505, -20.3627171951], [-51.2952039904, -20.3280208006], [-51.0937799406, -20.2853407974], [-51.0786895907, -20.3275567578], [-51.0049676162, -20.4022786353], [-50.9604556277, -20.5585778277], [-50.9012808862, -20.5386376227], [-50.8857080997, -20.5580538377], [-50.8767917408, -20.5378513537], [-50.8483325724, -20.5484116368], [-50.8314668548, -20.5308444541], [-50.759948327, -20.5516247943], [-50.7242064285, -20.5269056028], [-50.6635539635, -20.5309029224], [-50.6471267918, -20.5069990089], [-50.5533534156, -20.5280266074], [-50.544330182, -20.5036338983], [-50.4272511923, -20.4742263227], [-50.324853602, -20.4762281058], [-50.2971570897, -20.4606267683], [-50.2708007856, -20.5205006375], [-50.2791780782, -20.5944387883], [-50.3015541249, -20.6289109846], [-50.2839780189, -20.6490793129], [-50.2938312531, -20.7340057167], [-50.2724173464, -20.7332038579], [-50.2649497611, -20.7517162772], [-50.2500294521, -20.7362702223], [-50.2352030716, -20.7532038892], [-50.2262253167, -20.7386244273], [-50.2155133751, -20.7545685628], [-50.1769914026, -20.7440584796], [-50.1682789706, -20.7714318657], [-50.1445627993, -20.7814564006], [-50.1135924676, -20.7629868552], [-50.1220148296, -20.835502178], [-50.1629248937, -20.8744478656], [-50.1126959911, -20.8755990333], [-50.0707107483, -20.9099581291], [-50.0616718985, -20.9387876849], [-50.0219013054, -20.9431141969], [-50.0324488378, -20.9779215845], [-50.1070044197, -21.0625314301], [-50.1029096735, -21.1010718668], [-50.1508418007, -21.1394171245], [-50.1298723976, -21.194167125], [-50.0918815151, -21.2195107836], [-50.0265543466, -21.2103218498], [-50.0006567068, -21.2258376653], [-49.9206493029, -21.2254700715], [-49.8317480991, -21.2750124472], [-49.8179638152, -21.3032320763], [-49.8258645901, -21.3383045818], [-49.8684159051, -21.3926120495], [-49.8612793027, -21.4319709291], [-49.87128448, -21.4676127862], [-49.8906249102, -21.46805389], [-49.9104258456, -21.5099890533], [-49.9099264333, -21.5506225098], [-49.9927780228, -21.5904483265], [-50.0277314686, -21.5887636712], [-50.0477224267, -21.6094569583], [-50.0603783852, -21.5834703444], [-50.0994456175, -21.6218435944], [-50.1143780196, -21.69211339], [-50.2074500495, -21.6869486546], [-50.2943966721, -21.7170241065], [-50.3483170267, -21.708967805], [-50.3601525838, -21.7253138945], [-50.4577092361, -21.684665457], [-50.4631050686, -21.7065028082], [-50.5027236137, -21.7153257216], [-50.5678497017, -21.6930725977], [-50.6002072405, -21.6585524575], [-50.6207219535, -21.6597012126], [-50.6228551709, -21.6427935951], [-50.6308783711, -21.6554965862], [-50.6468834726, -21.6494790031], [-50.6524704303, -21.6229670922], [-50.7077887426, -21.5765197929], [-50.7817036689, -21.567114823], [-50.7685069448, -21.5537623517], [-50.7813475306, -21.5429706063], [-50.8145453601, -21.5637613857], [-50.8149366489, -21.5396688109], [-50.8689952796, -21.5249918468], [-50.8693351432, -21.4946307952]]]}}, {"type": "Feature", "id": "Mar\u00edlia", "properties": {"ra": "Mar\u00edlia"}, "geometry": {"type": "Polygon", "coordinates": [[[-50.3587675842, -22.9155828762], [-50.4194991299, -22.9152254955], [-50.431182763, -22.9458052601], [-50.5055958238, -22.9449014979], [-50.5411616947, -22.9115388042], [-50.5767592503, -22.9035318818], [-50.6080402056, -22.9236778879], [-50.6569398899, -22.8952624214], [-50.7290427982, -22.9620235893], [-50.7954495998, -22.9507046148], [-50.805661733, -22.9398246767], [-50.792466495, -22.8938789807], [-50.8419017688, -22.8309243525], [-50.8882323755, -22.7960573819], [-50.9451503264, -22.8034585954], [-50.9817847193, -22.7809574426], [-50.9801006514, -22.7673342395], [-50.959362576, -22.7646135902], [-50.9612616272, -22.7468032082], [-50.93864481, -22.7497520625], [-50.937136188, -22.7107930244], [-50.9523241768, -22.6948889989], [-50.9228724332, -22.6428280591], [-50.903939566, -22.6377541845], [-50.8646663445, -22.660570142], [-50.8273315761, -22.6465707143], [-50.8456566571, -22.6174934066], [-50.8413214322, -22.5492174342], [-50.8573172751, -22.528716081], [-50.8308630471, -22.4836194277], [-50.8450326882, -22.4721521327], [-50.8292939486, -22.4218166464], [-50.8826040901, -22.420943125], [-50.9218193731, -22.4440729211], [-50.9347853056, -22.4241803542], [-50.9052193928, -22.3487540129], [-50.8680223728, -22.3409287254], [-50.8492779096, -22.3525038334], [-50.8593902566, -22.2837084622], [-50.8384345875, -22.2391761951], [-50.8228703001, -22.2382074761], [-50.7674491872, -22.1021344539], [-50.7775101346, -22.0901326773], [-50.7052909404, -22.0214818434], [-50.9373839228, -21.9504993066], [-50.9654521337, -21.9254950368], [-50.8230658439, -21.8053361756], [-50.8556845576, -21.7737248963], [-50.7734004747, -21.5637592493], [-50.7077887426, -21.5765197929], [-50.6524704303, -21.6229670922], [-50.6468834726, -21.6494790031], [-50.6308783711, -21.6554965862], [-50.6228551709, -21.6427935951], [-50.6207219535, -21.6597012126], [-50.6002072405, -21.6585524575], [-50.549217356, -21.7020521539], [-50.4950915499, -21.7146749906], [-50.4631050686, -21.7065028082], [-50.4577092361, -21.684665457], [-50.3601525838, -21.7253138945], [-50.3483170267, -21.708967805], [-50.2728259826, -21.7088124163], [-50.2585358631, -21.7378121573], [-50.1545533312, -21.7849357318], [-50.1153034015, -21.8352667051], [-50.0323923605, -21.8870622622], [-50.014864524, -21.9226879495], [-49.9806408041, -21.9403597984], [-49.8817670149, -21.9702361745], [-49.815074791, -21.9347029439], [-49.8280490557, -21.9183279225], [-49.8084213954, -21.8897141575], [-49.7681897664, -21.9159521504], [-49.7672828579, -21.9316351834], [-49.7338972442, -21.9393544073], [-49.7559810126, -22.0077407214], [-49.6609667383, -22.0759293327], [-49.6394310746, -22.0690675187], [-49.6222444326, -22.1121988954], [-49.5845209029, -22.1122708562], [-49.567770912, -22.139365046], [-49.555947794, -22.1293283354], [-49.5616690808, -22.144801904], [-49.52389125, -22.1532464116], [-49.5289547786, -22.1812406137], [-49.4952782602, -22.2292035858], [-49.4585086112, -22.2405971837], [-49.4362268911, -22.2701317285], [-49.4404323862, -22.3026202985], [-49.4223276567, -22.2937261577], [-49.4945588563, -22.3825210306], [-49.5348978915, -22.3955816314], [-49.5694969677, -22.3831421526], [-49.575633543, -22.4166055084], [-49.6034557502, -22.4426007887], [-49.5956877621, -22.4589057098], [-49.6280371803, -22.4686771448], [-49.6459047942, -22.4361642237], [-49.6739960313, -22.4682445189], [-49.7033405821, -22.4388727166], [-49.7430409239, -22.4697702136], [-49.7506725944, -22.4946893422], [-49.7715256646, -22.5001712556], [-49.7360243728, -22.5878998088], [-49.7047005236, -22.6246825617], [-49.6874621779, -22.6005777564], [-49.6296690893, -22.6235086623], [-49.6245200912, -22.6491589267], [-49.5984425313, -22.6643750858], [-49.584383603, -22.6039299729], [-49.5529616211, -22.5578465204], [-49.5406844229, -22.5616496279], [-49.5245879904, -22.5222651364], [-49.5026046372, -22.5141175363], [-49.4543352619, -22.566671619], [-49.4438774008, -22.6000207226], [-49.3505349994, -22.6420797251], [-49.360117578, -22.6574219441], [-49.3351925906, -22.6758768204], [-49.3835185796, -22.7076203138], [-49.3675390798, -22.820425396], [-49.3777935625, -22.8592644855], [-49.3620705627, -22.8888710323], [-49.3083751583, -22.8849203808], [-49.2794298316, -22.9383310336], [-49.3589875343, -22.992110925], [-49.3678219526, -22.9837082646], [-49.3871622347, -23.0531837181], [-49.4434510418, -23.0571212404], [-49.4414986274, -23.110668148], [-49.4733008677, -23.1488912959], [-49.544745902, -23.1384129437], [-49.5528089945, -23.123237977], [-49.5728763863, -23.1380763082], [-49.5217309991, -23.2058726075], [-49.5486790332, -23.2434569817], [-49.5398810356, -23.2801271385], [-49.5600243965, -23.2584819571], [-49.6266683363, -23.2812930035], [-49.6778424481, -23.164582617], [-49.7300110226, -23.1409673552], [-49.7266484677, -23.1075159366], [-49.7912374284, -23.1019477219], [-49.8331808823, -23.0654646535], [-49.8708152397, -23.0699133969], [-49.9111233334, -23.0506407857], [-49.8998792979, -22.9999584919], [-49.9720458956, -22.9580659856], [-49.9608988358, -22.9303862896], [-49.9856860131, -22.8970277742], [-49.9983739611, -22.901272931], [-49.9943945942, -22.9292420482], [-50.0473732534, -22.9014872896], [-50.0669907845, -22.9270384352], [-50.1509526043, -22.9346829951], [-50.1829127112, -22.9532966765], [-50.2370565283, -22.9536693124], [-50.2729070872, -22.9305249769], [-50.3397052151, -22.9475966518], [-50.3587675842, -22.9155828762]]]}}, {"type": "Feature", "id": "Central", "properties": {"ra": "Central"}, "geometry": {"type": "Polygon", "coordinates": [[[-48.3941030558, -22.1140799014], [-48.4763935944, -22.041349125], [-48.4904932051, -22.0108497726], [-48.545409894, -22.032641154], [-48.5635364261, -22.0046111927], [-48.6444814053, -21.9702378231], [-48.6868077303, -21.9132165063], [-48.720728851, -21.9086769406], [-48.7265380673, -21.8912737039], [-48.8301478501, -21.8899442248], [-48.8771487242, -21.9205700368], [-48.9056553015, -21.8677107448], [-48.9893704237, -21.8269552705], [-48.9620428937, -21.764738047], [-49.0423997367, -21.7738326754], [-49.1040350964, -21.7505247724], [-49.1600353753, -21.649479945], [-49.1898426598, -21.6475319187], [-49.2139643185, -21.6711626571], [-49.2407338491, -21.6222644186], [-49.1830239563, -21.5937274331], [-49.1488406273, -21.5284623422], [-49.117985888, -21.5149988361], [-49.087156194, -21.466245082], [-49.0543581163, -21.4880504285], [-49.0188835331, -21.4818077735], [-48.9832838288, -21.4556617759], [-48.981018451, -21.416046694], [-48.9488227872, -21.4255153814], [-48.9478644956, -21.398692767], [-48.8997000756, -21.3701109689], [-48.874388005, -21.3935666647], [-48.8339886473, -21.3928803568], [-48.7563933494, -21.4235320204], [-48.7304724769, -21.3174673558], [-48.7409196129, -21.2451433367], [-48.6826589444, -21.2188095069], [-48.6390694226, -21.2418730186], [-48.6034697118, -21.3145752282], [-48.5421721686, -21.3520749339], [-48.4780203397, -21.3312950491], [-48.4376529082, -21.3423408955], [-48.4263620053, -21.3181781138], [-48.3512450156, -21.3206816187], [-48.3113559312, -21.3602716123], [-48.3353788102, -21.3847698041], [-48.3363806298, -21.4261876856], [-48.2857748444, -21.4360729968], [-48.2820954875, -21.4808215189], [-48.1962441325, -21.463964662], [-48.1773887923, -21.4370966899], [-48.119106106, -21.435312897], [-48.1130435974, -21.4201098704], [-48.102852414, -21.4526104704], [-48.0738120139, -21.4787623047], [-48.0565758669, -21.4752041602], [-48.0413645762, -21.5155503134], [-48.0278515771, -21.5130662185], [-48.0276545428, -21.5380244034], [-48.0115683219, -21.5326979221], [-47.9902113165, -21.5955534836], [-47.9420445286, -21.5973022017], [-47.9231594657, -21.573646394], [-47.9121019695, -21.5893897654], [-47.8804203497, -21.5892839053], [-47.8800271944, -21.612154932], [-47.8296176634, -21.6009797955], [-47.8341259228, -21.6130081065], [-47.801249898, -21.6344175726], [-47.8301194616, -21.6689844282], [-47.8113692264, -21.6796413472], [-47.8151319933, -21.6969044495], [-47.7693427543, -21.6908782847], [-47.7328155476, -21.7135673046], [-47.6785020622, -21.6565975906], [-47.6775806134, -21.6111912554], [-47.6056078405, -21.5793835764], [-47.5990327675, -21.5462946729], [-47.4502656005, -21.5764553644], [-47.4410280494, -21.6126530361], [-47.4123951386, -21.6020722603], [-47.3801480805, -21.649332786], [-47.3217686637, -21.6494743779], [-47.3368847987, -21.6673598041], [-47.3297640472, -21.7264317361], [-47.3032273117, -21.7368315432], [-47.2949538689, -21.7616295335], [-47.333826606, -21.7757467874], [-47.3426193218, -21.8393878545], [-47.3969262082, -21.8572113308], [-47.4051642275, -21.9143592485], [-47.4974360241, -21.9172795222], [-47.543113023, -21.979258792], [-47.5802456818, -21.9886627487], [-47.574484668, -22.0172233968], [-47.6002915269, -22.0511166357], [-47.6576187255, -22.0513177577], [-47.6751919226, -22.012571341], [-47.715751975, -22.0346117163], [-47.7457724792, -22.0583787623], [-47.7521770472, -22.0894584236], [-47.7893736918, -22.0973422869], [-47.8144281412, -22.1608624135], [-47.8303547796, -22.1477133952], [-47.89664681, -22.1595939131], [-47.9472003326, -22.1108799511], [-47.9926521689, -22.1155262475], [-48.0444124858, -22.0727455757], [-48.042426667, -22.1257609241], [-48.1046252125, -22.179719275], [-48.1315535001, -22.1834268608], [-48.1975226512, -22.1475704693], [-48.2554900804, -22.1541616535], [-48.2443229797, -22.1774190717], [-48.3138599503, -22.1982553028], [-48.3869750773, -22.1591411358], [-48.3941030558, -22.1140799014]]]}}, {"type": "Feature", "id": "Itapeva", "properties": {"ra": "Itapeva"}, "geometry": {"type": "Polygon", "coordinates": [[[-49.1111151686, -24.6878652195], [-49.1851718571, -24.6722635926], [-49.2074373423, -24.7004196082], [-49.2752012476, -24.6938902869], [-49.3049176147, -24.6731633802], [-49.2991454409, -24.6544710171], [-49.3159481866, -24.6385122445], [-49.30311738, -24.5964626034], [-49.3155097336, -24.5550230076], [-49.2798679189, -24.5342191237], [-49.2951948237, -24.4998241973], [-49.2464443742, -24.4686120807], [-49.2521834904, -24.4336667277], [-49.2349831832, -24.410555421], [-49.2530215893, -24.4045531707], [-49.2002006201, -24.3439283664], [-49.2833304469, -24.3075779489], [-49.3048956705, -24.2509462981], [-49.355479219, -24.2140275124], [-49.3410656328, -24.2026376477], [-49.3364840266, -24.1365620925], [-49.4295319526, -24.0880523694], [-49.4629471569, -24.0270186789], [-49.4866751769, -24.0241167259], [-49.4932056321, -23.9771130292], [-49.5162777558, -23.9696396222], [-49.4991538917, -23.9579465054], [-49.5206207469, -23.9456190446], [-49.5111256164, -23.9254167467], [-49.556511439, -23.9222482144], [-49.573121305, -23.877472628], [-49.5848693105, -23.8899466965], [-49.6102571391, -23.8512128402], [-49.5619500739, -23.818003078], [-49.5600261566, -23.7608238393], [-49.5729841108, -23.7555578099], [-49.563571152, -23.7317375187], [-49.5483146093, -23.7358106825], [-49.5487207364, -23.703534277], [-49.6166661169, -23.6391046864], [-49.5997280949, -23.5351435654], [-49.6288920765, -23.5113468539], [-49.6132252054, -23.5096511656], [-49.6209011964, -23.4928446304], [-49.6150947768, -23.4730167497], [-49.5993792855, -23.4780203512], [-49.5951622555, -23.4399022917], [-49.5724732859, -23.4434635739], [-49.5660944327, -23.4272104591], [-49.5803265346, -23.4312380591], [-49.579123645, -23.4145925846], [-49.6178459957, -23.3977209468], [-49.5899248425, -23.3823126824], [-49.6113285252, -23.3541733036], [-49.6374123712, -23.3490524401], [-49.6211175274, -23.3301165011], [-49.6266683363, -23.2812930035], [-49.5600243965, -23.2584819571], [-49.5398810356, -23.2801271385], [-49.5486790332, -23.2434569817], [-49.5217309991, -23.2058726075], [-49.5728763863, -23.1380763082], [-49.5528089945, -23.123237977], [-49.544745902, -23.1384129437], [-49.4733008677, -23.1488912959], [-49.4414986274, -23.110668148], [-49.4434510418, -23.0571212404], [-49.4116406006, -23.0510652432], [-49.3871622347, -23.0531837181], [-49.3811549599, -23.0810493314], [-49.3535870313, -23.0876365716], [-49.3299088788, -23.1255535755], [-49.2593683964, -23.1212124835], [-49.2427225542, -23.2033892882], [-49.1836791172, -23.2572474924], [-49.150847006, -23.2595850943], [-49.1214290961, -23.0962663797], [-48.9924073336, -23.086517137], [-48.9731493122, -23.1069314577], [-48.9806448103, -23.1598232833], [-49.0006287227, -23.1857342979], [-48.9882788438, -23.2231934869], [-49.0121622043, -23.261703475], [-48.9686174301, -23.2949486535], [-48.9286125148, -23.2985699816], [-48.8043703446, -23.2674994858], [-48.7918592118, -23.2915304459], [-48.6806636476, -23.3422220944], [-48.5888749507, -23.3137957812], [-48.5536288049, -23.2788809041], [-48.4910696515, -23.2606502595], [-48.4055771347, -23.2671475353], [-48.4023960042, -23.2847982654], [-48.3596794469, -23.3025217027], [-48.3866089349, -23.3432708558], [-48.3688826363, -23.3427744131], [-48.3555176549, -23.3752403684], [-48.3696804202, -23.4078254988], [-48.3289635873, -23.4319029908], [-48.3009600727, -23.4164505845], [-48.266928728, -23.4661512406], [-48.1891765222, -23.4807876], [-48.1942736836, -23.4988080701], [-48.2491338503, -23.5310759311], [-48.2732837871, -23.5753271564], [-48.2958926857, -23.5636861554], [-48.2995770244, -23.5877806049], [-48.3284012449, -23.5966302453], [-48.3398162287, -23.5731877061], [-48.3814401491, -23.5795297982], [-48.3635641941, -23.6589329086], [-48.4073441157, -23.7141500824], [-48.3888772971, -23.7406203179], [-48.4057362118, -23.7353451091], [-48.4079296726, -23.7487150632], [-48.3904521705, -23.7514398985], [-48.3992439362, -23.7595153881], [-48.380625073, -23.7562867606], [-48.3718833734, -23.7646289674], [-48.3988245931, -23.7621713486], [-48.3997752877, -23.7763838241], [-48.379130218, -23.7771248927], [-48.3826963306, -23.7906112957], [-48.3520435242, -23.8059085329], [-48.3740241559, -23.8129859312], [-48.3654432022, -23.8347302984], [-48.3540420953, -23.8236550012], [-48.3306372568, -23.8406469581], [-48.3399029619, -23.8543103657], [-48.2956541866, -23.8246407609], [-48.2694890999, -23.8558709985], [-48.1886086193, -23.8547002007], [-48.1911006056, -23.8858612987], [-48.1724980633, -23.889646673], [-48.1664212706, -23.9217587273], [-48.1206829817, -23.9642444573], [-48.1246705777, -24.0137916021], [-48.083106549, -24.0030486882], [-48.0615058401, -24.013643666], [-47.9534595487, -24.110236107], [-48.0505477007, -24.1382475033], [-48.0592504844, -24.1828710196], [-48.0935232491, -24.2002516729], [-48.1390537491, -24.1938877731], [-48.1444442506, -24.2312077537], [-48.2004421623, -24.261661562], [-48.2519370444, -24.2571207502], [-48.2804968959, -24.2814246926], [-48.2745565187, -24.2959106163], [-48.3221967055, -24.3139971438], [-48.3251310377, -24.291461593], [-48.3594842899, -24.2818920777], [-48.3826580896, -24.3036864219], [-48.3569895788, -24.3055370905], [-48.3502032621, -24.3455407627], [-48.3992997607, -24.4270911463], [-48.3636337752, -24.4203908351], [-48.347075429, -24.4429545313], [-48.3938168784, -24.4843413926], [-48.3816425562, -24.5034303225], [-48.3962760822, -24.5226915366], [-48.4337664871, -24.5427306188], [-48.3903731296, -24.5697899597], [-48.4469998905, -24.5987989845], [-48.4588684312, -24.6554953808], [-48.4827117913, -24.6784658754], [-48.5039287581, -24.6674494694], [-48.5224075105, -24.6816828615], [-48.53767067, -24.7257128296], [-48.5815612682, -24.670212775], [-48.6373361773, -24.6771788503], [-48.6609116049, -24.7062183013], [-48.6767202506, -24.6979225904], [-48.6764990633, -24.6711228498], [-48.6936124962, -24.6701951724], [-48.691028985, -24.6935484744], [-48.7033368897, -24.6798937335], [-48.7519444472, -24.6946918861], [-48.7568109067, -24.6793661692], [-48.7781758405, -24.6962432], [-48.8294119049, -24.654913222], [-48.8580286327, -24.6572122047], [-48.8514238146, -24.6745175168], [-48.9476132643, -24.6732273373], [-48.9579756378, -24.6847956665], [-48.9889216071, -24.6561555559], [-49.0082412351, -24.6599432643], [-49.0066540993, -24.6333778116], [-49.0418091047, -24.640087191], [-49.0369219567, -24.6599325284], [-49.0608094867, -24.6848542126], [-49.0793555052, -24.6721217405], [-49.1111151686, -24.6878652195]]]}}, {"type": "Feature", "id": "S. J. dos Campos", "properties": {"ra": "S. J. dos Campos"}, "geometry": {"type": "MultiPolygon", "coordinates": [[[[-45.2951048852, -23.9174266396], [-45.2974412433, -23.9192152164], [-45.2976456948, -23.9173381438], [-45.2951048852, -23.9174266396]]], [[[-45.5222088192, -23.8544351546], [-45.5261428389, -23.84946153], [-45.5209153331, -23.8463512651], [-45.5222088192, -23.8544351546]]], [[[-45.1692409714, -23.3971978794], [-45.1763577683, -23.4400255415], [-45.3085004242, -23.496833125], [-45.3417911295, -23.5475822313], [-45.4393207413, -23.552636508], [-45.4568172664, -23.5766096595], [-45.4870886193, -23.5719869679], [-45.5240868368, -23.6043319491], [-45.5405110498, -23.5961541655], [-45.5803532364, -23.6462961363], [-45.6314067324, -23.6566547981], [-45.6213811208, -23.6293457047], [-45.6361251895, -23.621635494], [-45.7020932349, -23.6363575201], [-45.7055008152, -23.601097338], [-45.7414173021, -23.6030696265], [-45.7304906838, -23.5739946464], [-45.7555805914, -23.5106673822], [-45.7879962808, -23.5086586521], [-45.7883464967, -23.4923901516], [-45.8125078297, -23.4992487144], [-45.8398147656, -23.4716199398], [-45.9042727244, -23.504843639], [-45.9614650705, -23.4965597396], [-45.9679053771, -23.4749608817], [-45.9514168269, -23.4508588853], [-45.9913708513, -23.4158297733], [-46.0009766663, -23.3856160819], [-46.0379116315, -23.3865170192], [-46.0984750599, -23.325595702], [-46.111952642, -23.2864526808], [-46.1507130011, -23.2735823899], [-46.1538917738, -23.2349287436], [-46.2277198222, -23.1886386321], [-46.2618766297, -23.1859843876], [-46.2565155009, -23.1590646816], [-46.2255970754, -23.1364085625], [-46.204943357, -23.0848160102], [-46.1611824183, -23.0661098561], [-46.1254516911, -23.0107179013], [-46.0506804372, -22.9658620057], [-46.0410630222, -22.9211457738], [-46.0513293016, -22.8958387576], [-46.0079965025, -22.8887345927], [-45.9122197953, -22.816106688], [-45.8884696398, -22.8753281658], [-45.8634070893, -22.8682214909], [-45.841295232, -22.8326947973], [-45.8093574496, -22.828897778], [-45.7814397354, -22.8547682139], [-45.7544723268, -22.792423402], [-45.7131372268, -22.8142966549], [-45.7295466151, -22.7993543544], [-45.7117666305, -22.7693548468], [-45.7277007712, -22.7231935058], [-45.7951897613, -22.7385329741], [-45.819484488, -22.722230385], [-45.8111986568, -22.6982222547], [-45.7423633461, -22.658677779], [-45.6935496526, -22.6512215986], [-45.736985658, -22.6080507722], [-45.7163978477, -22.5772157147], [-45.6594402788, -22.5795937573], [-45.6806354935, -22.6358474313], [-45.6641094802, -22.6498846601], [-45.6176857325, -22.6374256986], [-45.576077739, -22.6012143721], [-45.5549136844, -22.6259524171], [-45.5839284236, -22.6512000383], [-45.5394665126, -22.6520910684], [-45.4883592942, -22.6282964774], [-45.4734156342, -22.5884056284], [-45.4120551322, -22.622513354], [-45.3995453785, -22.6531911866], [-45.3325221491, -22.6171500967], [-45.2754258803, -22.6164691271], [-45.2604788913, -22.5828681913], [-45.1776063285, -22.5493876494], [-45.1498854081, -22.5068654514], [-45.0279666342, -22.4627084486], [-44.9654228621, -22.4747033922], [-44.9396332824, -22.4521796677], [-44.8974054603, -22.4524208253], [-44.8717182586, -22.4238383954], [-44.8325176275, -22.4305003695], [-44.8088055001, -22.4048049407], [-44.7330671274, -22.4331079751], [-44.7152669347, -22.51374936], [-44.6694944012, -22.5388139895], [-44.6769920473, -22.561009508], [-44.6412959368, -22.5588796361], [-44.6454244317, -22.6034094938], [-44.6342083339, -22.6090848805], [-44.6018791758, -22.6071455453], [-44.583716041, -22.6255001268], [-44.5727447585, -22.6014099406], [-44.5504684014, -22.6045500909], [-44.5256318527, -22.6190236693], [-44.5370215877, -22.6318802331], [-44.5348524773, -22.6370465135], [-44.5088845456, -22.6404302741], [-44.4829504417, -22.6040998062], [-44.4657757876, -22.6151968935], [-44.4297940832, -22.5980401349], [-44.4064553155, -22.6078791994], [-44.4091531662, -22.5878640672], [-44.3914602833, -22.5726507199], [-44.3597675235, -22.5814346514], [-44.3698504866, -22.5893732205], [-44.3562754621, -22.6139996256], [-44.3472642856, -22.5900793146], [-44.3261488924, -22.5880528753], [-44.2852587854, -22.6092389979], [-44.226376384, -22.6040858105], [-44.1838461913, -22.6368060823], [-44.1896966292, -22.6480916127], [-44.1605171381, -22.6778357533], [-44.1780750436, -22.707432587], [-44.2032885471, -22.7158840933], [-44.2015485737, -22.7319419634], [-44.2263896808, -22.7331754191], [-44.2571499787, -22.7664652269], [-44.2563893793, -22.786279147], [-44.2397502661, -22.7908911368], [-44.2684349281, -22.8291195161], [-44.3737908967, -22.857593333], [-44.4177626016, -22.8476195832], [-44.4657899647, -22.885031641], [-44.494296083, -22.845978464], [-44.5432794305, -22.8843401054], [-44.6066300138, -22.8851965484], [-44.6589364367, -22.9272436074], [-44.6734592164, -22.9178062688], [-44.6877737585, -22.9360068971], [-44.7131601642, -22.9297292189], [-44.743097185, -22.947019424], [-44.75485295, -22.9798155447], [-44.7920443676, -22.9816733094], [-44.8022091561, -22.9986528317], [-44.7927184528, -23.0097521839], [-44.8253462484, -23.1626073009], [-44.8722746801, -23.1825880319], [-44.892473185, -23.2109932266], [-44.9157425824, -23.1980880987], [-44.960916368, -23.2445491], [-44.9835295651, -23.2289991886], [-45.0171862453, -23.2692306723], [-45.0094859258, -23.3060662832], [-45.0440719592, -23.3148247126], [-45.0673686047, -23.2998239124], [-45.0675392508, -23.3472142785], [-45.1392733101, -23.3596643175], [-45.1692409714, -23.3971978794]]], [[[-45.2828945516, -23.6014097622], [-45.2955334641, -23.6019738834], [-45.2808371292, -23.5930841361], [-45.2828945516, -23.6014097622]]], [[[-45.1576222284, -23.572826741], [-45.1580708575, -23.559209998], [-45.144681209, -23.5688722999], [-45.1576222284, -23.572826741]]]]}}, {"type": "Feature", "id": "Franca", "properties": {"ra": "Franca"}, "geometry": {"type": "Polygon", "coordinates": [[[-47.7792906695, -20.8939634533], [-47.8084305659, -20.8900218719], [-47.83662828, -20.9100796997], [-47.8686268295, -20.8941931057], [-47.8897225785, -20.9091524241], [-47.9229131572, -20.8822916715], [-47.9392621115, -20.8994727995], [-47.9849132235, -20.8758962828], [-48.0555690335, -20.9307792647], [-48.1032095568, -20.8996166943], [-48.1905595877, -20.8858480664], [-48.2419546788, -20.8488905938], [-48.2325991634, -20.816949417], [-48.2547875705, -20.805780444], [-48.2437190504, -20.7736379184], [-48.2568915026, -20.7400315508], [-48.2729650952, -20.7432100273], [-48.2953517884, -20.7198078196], [-48.3200479863, -20.7247500503], [-48.3378337941, -20.6950715649], [-48.3331342839, -20.6648958069], [-48.3502944528, -20.6442217858], [-48.3198890912, -20.588576579], [-48.3831963789, -20.5366903913], [-48.3710842315, -20.5457603164], [-48.3717396586, -20.5296813383], [-48.343702244, -20.5214473835], [-48.3258794506, -20.531973341], [-48.2927629204, -20.5138070505], [-48.278492323, -20.468600547], [-48.2276195699, -20.449469934], [-48.2129322385, -20.457440037], [-48.17862563, -20.3872361684], [-48.1894457073, -20.3414497043], [-48.1493326701, -20.2890838667], [-48.1579308245, -20.2719938198], [-48.1455296726, -20.2609483392], [-48.1767368684, -20.2226519776], [-48.2410751449, -20.2285578313], [-48.2289411178, -20.1980640783], [-48.2607618161, -20.1941904916], [-48.2717586553, -20.2174107566], [-48.3146728687, -20.195066859], [-48.3095915041, -20.1539287806], [-48.3476360444, -20.1851888293], [-48.3759865496, -20.1648002294], [-48.3624978, -20.1475765349], [-48.3949828029, -20.1608193205], [-48.3894859809, -20.1335511031], [-48.4241401886, -20.1531861432], [-48.4511579742, -20.1254048611], [-48.3166776116, -20.1128778408], [-48.2646436328, -20.1433269997], [-48.2243712077, -20.1330386823], [-48.2185340842, -20.1149174193], [-48.2529689563, -20.077451508], [-48.2404257395, -20.0288154302], [-48.2073157609, -20.0389009329], [-48.1781503415, -20.0957107791], [-48.1125393835, -20.143293216], [-48.0699875692, -20.1461461435], [-48.0377393682, -20.1165276897], [-48.0193993376, -20.1196856656], [-47.9755154757, -20.0349030017], [-47.9480282979, -20.0552877449], [-47.9336493001, -20.1073835063], [-47.8989464647, -20.1252042255], [-47.8598979028, -20.0537102921], [-47.8753778277, -20.0209392988], [-47.8521082504, -19.989355845], [-47.7037849005, -19.9794339449], [-47.6343132004, -20.0487772373], [-47.5942973442, -20.0254209254], [-47.5799814035, -19.9947324835], [-47.4678431582, -19.9609516096], [-47.424675172, -20.0128728029], [-47.4437858222, -20.0274895124], [-47.4398463868, -20.0483583225], [-47.2565959654, -20.1657309588], [-47.230625256, -20.2186797067], [-47.2977588549, -20.3479627864], [-47.2923160543, -20.4472601912], [-47.2110394712, -20.5018231568], [-47.1540682856, -20.5190830153], [-47.1122322359, -20.637609489], [-47.0964472918, -20.6440533821], [-47.1148520514, -20.7067287909], [-47.1651492727, -20.701012673], [-47.1857965458, -20.7309650776], [-47.1747430697, -20.7387867977], [-47.1883687066, -20.7701485473], [-47.2243042946, -20.7996235465], [-47.2137315556, -20.8232171964], [-47.2269093543, -20.8559960591], [-47.2461807964, -20.8641183951], [-47.2891018888, -20.8354406515], [-47.3378645654, -20.8576329852], [-47.3440879582, -20.8275197397], [-47.4116646452, -20.8086682573], [-47.4066825556, -20.8750559091], [-47.436338922, -20.9177493186], [-47.4390910782, -20.9597867135], [-47.5054962879, -21.0245733257], [-47.57147038, -21.037954564], [-47.5714610087, -21.0115398084], [-47.604138322, -20.9876448653], [-47.611676329, -20.9614654966], [-47.6425687972, -20.9630541626], [-47.6738245562, -20.9359551388], [-47.7461154065, -20.942982244], [-47.7792906695, -20.8939634533]]]}}, {"type": "Feature", "id": "RM de S\u00e3o Paulo", "properties": {"ra": "RM de S\u00e3o Paulo"}, "geometry": {"type": "Polygon", "coordinates": [[[-47.0283295945, -23.8456987831], [-46.9856320922, -23.7998472215], [-47.0206404338, -23.7851252061], [-47.0617026349, -23.6819811002], [-47.0845843138, -23.6666688869], [-47.0417642567, -23.6113113151], [-47.0293467581, -23.567703128], [-47.0057881223, -23.5539007504], [-47.0121499142, -23.5360719204], [-46.9905398217, -23.53031919], [-47.0178309668, -23.4835710843], [-47.010175656, -23.4458511508], [-47.0372199452, -23.4355561028], [-47.0421686296, -23.3862590625], [-47.0285577438, -23.375008019], [-47.0424580614, -23.3517735664], [-46.9018609547, -23.3072649583], [-46.8676220751, -23.2777476419], [-46.8160439718, -23.2820715067], [-46.8023557751, -23.2580071335], [-46.7914255842, -23.2667081392], [-46.7252952902, -23.2480266926], [-46.6294290753, -23.2582160252], [-46.6068780804, -23.224857906], [-46.5945825951, -23.2370865957], [-46.5155171192, -23.237656155], [-46.4708268636, -23.2831293829], [-46.4600188187, -23.2705889651], [-46.4341724001, -23.2792809987], [-46.4164555972, -23.3136164909], [-46.3292372169, -23.2459260975], [-46.3084300469, -23.1992055063], [-46.2829339986, -23.1832801433], [-46.2277198222, -23.1886386321], [-46.1538917738, -23.2349287436], [-46.1507130011, -23.2735823899], [-46.111952642, -23.2864526808], [-46.0984750599, -23.325595702], [-46.0379116315, -23.3865170192], [-46.0009766663, -23.3856160819], [-45.9913708513, -23.4158297733], [-45.9514168269, -23.4508588853], [-45.9679053771, -23.4749608817], [-45.9614650705, -23.4965597396], [-45.9042727244, -23.504843639], [-45.8398147656, -23.4716199398], [-45.8125078297, -23.4992487144], [-45.7883464967, -23.4923901516], [-45.7879962808, -23.5086586521], [-45.7555805914, -23.5106673822], [-45.7304906838, -23.5739946464], [-45.7430372462, -23.6007254743], [-45.7055008152, -23.601097338], [-45.6943678972, -23.6303352903], [-45.7774291922, -23.6825935108], [-45.8299246194, -23.6743422003], [-45.8449493986, -23.6432624786], [-45.9166801008, -23.664860515], [-45.9347799852, -23.7000410071], [-45.9754121706, -23.6935702573], [-46.1023227248, -23.7364026097], [-46.1053825307, -23.7105660328], [-46.1256820361, -23.7126239763], [-46.1930861863, -23.7532548881], [-46.2360658034, -23.7339163814], [-46.2594427755, -23.7673161424], [-46.3201434092, -23.8021692028], [-46.3197764839, -23.7847743677], [-46.3378288662, -23.7812196157], [-46.4444777808, -23.8290085593], [-46.4367427229, -23.8423674252], [-46.4961608696, -23.8987642404], [-46.5596825939, -23.9464855918], [-46.6356344617, -23.977277414], [-46.6301545061, -23.9897852873], [-46.6497343133, -24.0010521188], [-46.6929361645, -23.9835394721], [-46.7715690749, -24.0074384517], [-46.7547138347, -23.9753968458], [-46.8066210916, -23.9388538152], [-46.8810846405, -23.982652456], [-46.8672119108, -24.0186834442], [-46.8888529529, -24.0381013379], [-46.9277445712, -24.0445200997], [-46.9375280552, -24.0332548104], [-46.9781469632, -24.0637596537], [-47.0257386007, -24.0523829677], [-47.0534892316, -24.0103548248], [-47.0671660679, -24.0246844643], [-47.0914289839, -24.0170514067], [-47.1066505366, -23.9933123823], [-47.1389055523, -24.0137047386], [-47.1994930043, -24.0001048801], [-47.1882539748, -23.9905885401], [-47.2080617203, -23.9643711073], [-47.1932700023, -23.9529307877], [-47.1999867803, -23.9386614309], [-47.1585056677, -23.9334552841], [-47.1159068903, -23.8399174174], [-47.0378477389, -23.8347882596], [-47.0283295945, -23.8456987831]]]}}, {"type": "Feature", "id": "Registro", "properties": {"ra": "Registro"}, "geometry": {"type": "MultiPolygon", "coordinates": [[[[-48.0028184584, -25.2472882619], [-47.9996566996, -25.2478368103], [-48.0016325096, -25.2487524463], [-48.0028184584, -25.2472882619]]], [[[-47.9448887628, -24.7714639831], [-47.9267484325, -24.7801876582], [-47.9380572648, -24.8102722486], [-47.9132421707, -24.8367849004], [-47.9163405486, -24.8561392343], [-47.9544130266, -24.8354897395], [-47.959220105, -24.8782219693], [-47.9911155981, -24.8460671893], [-48.0119826907, -24.8528692666], [-48.0514470234, -24.8347976824], [-48.0347708681, -24.8913810702], [-48.0456937729, -24.9276907996], [-48.0253574539, -24.9432724412], [-48.0355312165, -24.9657148315], [-48.0778865599, -24.9533537906], [-48.1390026738, -24.9858370966], [-48.1618313086, -24.9643459814], [-48.2099984332, -24.9564410032], [-48.2392203369, -24.9909265455], [-48.2499774874, -24.9769810116], [-48.2774440845, -25.0324832522], [-48.2870512185, -25.0394780578], [-48.2968365023, -25.022963155], [-48.3331972838, -25.0700824705], [-48.3236676535, -25.0362573587], [-48.3507541114, -25.035999095], [-48.3781646483, -24.9965376489], [-48.4106792667, -24.9797411069], [-48.4748920664, -25.0146560792], [-48.4828171807, -25.0527017448], [-48.5281079994, -25.1002987218], [-48.5558674849, -25.0838087907], [-48.5584277973, -25.0610520166], [-48.5821861226, -25.0511558928], [-48.5987714898, -25.0187825652], [-48.5668957728, -24.9717769335], [-48.571585354, -24.8945235172], [-48.5588323654, -24.9006944177], [-48.5465684827, -24.8803106977], [-48.5662013929, -24.8634682283], [-48.555279621, -24.8057135982], [-48.5162501537, -24.7796927353], [-48.4988326334, -24.7384783823], [-48.53767067, -24.7257128296], [-48.5285886354, -24.6873548272], [-48.5039287581, -24.6674494694], [-48.4827117913, -24.6784658754], [-48.4588684312, -24.6554953808], [-48.4469998905, -24.5987989845], [-48.3903731296, -24.5697899597], [-48.4337664871, -24.5427306188], [-48.3962760822, -24.5226915366], [-48.3816425562, -24.5034303225], [-48.3938168784, -24.4843413926], [-48.3510523451, -24.4587062537], [-48.3636337752, -24.4203908351], [-48.3992997607, -24.4270911463], [-48.3502032621, -24.3455407627], [-48.3569895788, -24.3055370905], [-48.3826580896, -24.3036864219], [-48.3594842899, -24.2818920777], [-48.3251310377, -24.291461593], [-48.3221967055, -24.3139971438], [-48.2745565187, -24.2959106163], [-48.2804968959, -24.2814246926], [-48.2519370444, -24.2571207502], [-48.2004421623, -24.261661562], [-48.1444442506, -24.2312077537], [-48.1390537491, -24.1938877731], [-48.0935232491, -24.2002516729], [-48.0592504844, -24.1828710196], [-48.0505477007, -24.1382475033], [-48.0082864072, -24.1349146898], [-47.9803118829, -24.1128949896], [-47.9460771034, -24.1170437219], [-47.8943670263, -24.0788266072], [-47.8676122285, -24.0760051129], [-47.858029262, -24.1221142063], [-47.8374461207, -24.1186904053], [-47.8276384007, -24.1327918764], [-47.7357783173, -24.1245449921], [-47.7215011907, -24.1127398267], [-47.7352734801, -24.1035215634], [-47.7246663745, -24.0804392978], [-47.6723726306, -24.0406648297], [-47.6132894354, -24.0441950529], [-47.6355413555, -24.0999805698], [-47.6279895991, -24.1134985692], [-47.5955461028, -24.0792956891], [-47.5699924497, -24.0775326098], [-47.5532066297, -24.036420448], [-47.5030662857, -24.0490538887], [-47.4768652349, -24.0808337557], [-47.4486434156, -24.0499970688], [-47.4269924756, -24.0681756331], [-47.3888170782, -24.05455824], [-47.3393107036, -24.0126229734], [-47.2855645775, -24.0059021368], [-47.2716324832, -24.0170941986], [-47.2612929993, -24.0048784736], [-47.2539639573, -24.0235359005], [-47.192996481, -23.9975473454], [-47.1389055523, -24.0137047386], [-47.1066505366, -23.9933123823], [-47.0914289839, -24.0170514067], [-47.0671660679, -24.0246844643], [-47.0534892316, -24.0103548248], [-47.0257386007, -24.0523829677], [-46.9781469632, -24.0637596537], [-46.9758559996, -24.1211128101], [-47.0336268423, -24.1474601735], [-47.045652553, -24.1795715491], [-47.0694754864, -24.1941505747], [-47.0287812803, -24.219028331], [-47.0566568504, -24.2623885351], [-47.0229913669, -24.2810223732], [-47.0391087628, -24.3285029179], [-47.1204240724, -24.3645854995], [-47.0990240921, -24.3906501668], [-47.1163733326, -24.4180180747], [-47.078132527, -24.4426292293], [-47.2274960794, -24.570559285], [-47.6521623489, -24.8185645649], [-47.8414170535, -24.9744454447], [-47.8876096086, -25.0531837311], [-47.9139404753, -25.0513086208], [-47.9173627517, -25.0144963738], [-47.8713577435, -24.9808125764], [-47.8905884884, -24.98009701], [-47.8881625914, -24.9652021356], [-47.8613367935, -24.9616945893], [-47.8548610079, -24.9362580789], [-47.8286687811, -24.9205466567], [-47.8391122608, -24.9042761785], [-47.8096084395, -24.9111719675], [-47.7338946781, -24.8351923839], [-47.7776006043, -24.8460295982], [-47.7812794434, -24.8010967745], [-47.809490117, -24.7892751317], [-47.8298311709, -24.755895104], [-47.8528641629, -24.7677736434], [-47.84629674, -24.7837848438], [-47.8651750066, -24.7988705003], [-47.8917640626, -24.774855054], [-47.9448887628, -24.7714639831]]]]}}, {"type": "Feature", "id": "Santos", "properties": {"ra": "Santos"}, "geometry": {"type": "MultiPolygon", "coordinates": [[[[-46.9066581831, -24.3896988248], [-46.9019907152, -24.3880927283], [-46.903403073, -24.3966397999], [-46.9066581831, -24.3896988248]]], [[[-46.7785336981, -23.949187036], [-46.7547138347, -23.9753968458], [-46.7715690749, -24.0074384517], [-46.6929361645, -23.9835394721], [-46.6497343133, -24.0010521188], [-46.6301545061, -23.9897852873], [-46.6356344617, -23.977277414], [-46.5596825939, -23.9464855918], [-46.4961608696, -23.8987642404], [-46.4367427229, -23.8423674252], [-46.4444777808, -23.8290085593], [-46.3378288662, -23.7812196157], [-46.3197764839, -23.7847743677], [-46.3201434092, -23.8021692028], [-46.2594427755, -23.7673161424], [-46.2360658034, -23.7339163814], [-46.2021265236, -23.7511510931], [-46.2435991386, -23.7751740379], [-46.2393495087, -23.7997194313], [-46.2094564025, -23.8125910966], [-46.237725436, -23.8381828381], [-46.2346641598, -23.8580296086], [-46.1790146248, -23.8889649845], [-46.1524154853, -23.8612274083], [-46.1241018353, -23.8594035157], [-46.1492477868, -23.9069319335], [-46.1793241023, -23.9238504779], [-46.1612960832, -23.9437086505], [-46.1828221843, -23.9615694016], [-46.181330295, -23.9900458428], [-46.244076538, -23.9908934252], [-46.2868574994, -24.0447757199], [-46.2943570196, -24.0161090699], [-46.3236897767, -24.0217544999], [-46.321187938, -23.9988691077], [-46.3039410509, -23.9901828771], [-46.3203870625, -23.974830927], [-46.3842675826, -23.9698903398], [-46.3746285542, -23.9857764445], [-46.3917862876, -23.9969176557], [-46.3831742764, -24.0172149492], [-46.3989702364, -24.033139459], [-46.3991300173, -24.0177902674], [-46.4166023294, -24.0132819881], [-46.4986875717, -24.0401280086], [-46.8972471218, -24.2526222605], [-46.9512432064, -24.1921454269], [-46.9420193746, -24.1486804692], [-46.979384488, -24.1318618658], [-46.9694669565, -24.0941530511], [-46.9841639545, -24.0693118399], [-46.9375280552, -24.0332548104], [-46.9277445712, -24.0445200997], [-46.8888529529, -24.0381013379], [-46.8672119108, -24.0186834442], [-46.8810846405, -23.982652456], [-46.8258058222, -23.9577719667], [-46.8294663514, -23.946814216], [-46.7785336981, -23.949187036]]], [[[-46.0255378829, -23.8253629584], [-46.0239661518, -23.8266393845], [-46.027132241, -23.825572205], [-46.0255378829, -23.8253629584]]]]}}]}